METOP-C                 
1 43689U 18087A   26116.47384854  .00000107  00000+0  68879-4 0  9992
2 43689  98.6680 177.0136 0000830  40.3542 319.7697 14.21511800387488
GEO-KOMPSAT-2A          
1 43823U 18100A   26116.41780597 -.00000356  00000+0  00000+0 0  9990
2 43823   0.0570  67.3279 0001977 357.6697  68.0988  1.00271204 27112
METEOR-M2 2             
1 44387U 19038A   26116.47297736  .00000084  00000+0  56388-4 0  9993
2 44387  98.9133 103.0021 0001743 126.7987 233.3351 14.24351008353934
ARKTIKA-M 1             
1 47719U 21016A   26113.16409645 -.00000101  00000+0  00000+0 0  9997
2 47719  63.2246  65.5569 7266494 269.6808  14.9538  2.00609676 37686
FENGYUN 3E              
1 49008U 21062A   26116.54934144  .00000345  00000+0  18329-3 0  9999
2 49008  98.7512 120.5326 0000774 195.1286 164.9867 14.19900823249254
GOES 18                 
1 51850U 22021A   26116.37378130  .00000084  00000+0  00000+0 0  9994
2 51850   0.0261  86.4448 0000457   2.5991 122.8889  1.00272543  6071
NOAA 21 (JPSS-2)        
1 54234U 22150A   26116.43992442  .00000072  00000+0  54590-4 0  9996
2 54234  98.7033  56.1056 0001826  22.3565 337.7690 14.19555691179203
METEOSAT-12 (MTG-I1)    
1 54743U 22170C   26116.35119918 -.00000020  00000+0  00000+0 0  9999
2 54743   0.7238  22.3142 0001116 332.3843 345.7586  1.00269432 12451
TIANMU-1 03             
1 55973U 23039A   26116.48153823  .00017987  00000+0  37297-3 0  9998
2 55973  97.5218 288.4918 0001641 282.0137  78.0928 15.45786693172848
TIANMU-1 04             
1 55974U 23039B   26116.49007896  .00018805  00000+0  38262-3 0  9991
2 55974  97.5153 287.6535 0002294 275.6537  84.4450 15.46331724172854
TIANMU-1 05             
1 55975U 23039C   26116.52474303  .00017997  00000+0  37397-3 0  9996
2 55975  97.5198 288.1704 0001616 325.0449  35.0693 15.45725348172834
TIANMU-1 06             
1 55976U 23039D   26116.49063766  .00018349  00000+0  37434-3 0  9994
2 55976  97.5207 288.7202 0001791 311.7247  48.3849 15.46258648172854
FENGYUN 3G              
1 56232U 23055A   26116.51159641  .00031398  00000+0  50977-3 0  9995
2 56232  49.9927 252.5276 0005978 322.7604  37.2948 15.52381049171978
METEOR-M2 3             
1 57166U 23091A   26116.52587606  .00000005  00000+0  21202-4 0  9990
2 57166  98.6123 172.5504 0003262 336.7240  23.3791 14.24042256147162
TIANMU-1 07             
1 57399U 23101A   26116.48176595  .00007568  00000+0  26920-3 0  9998
2 57399  97.2641 168.3480 0001437  13.1906 346.9372 15.29254660153743
TIANMU-1 08             
1 57400U 23101B   26116.51469924  .00009015  00000+0  31980-3 0  9997
2 57400  97.2630 168.1565 0002292 318.1016  42.0049 15.29285637153749
TIANMU-1 09             
1 57401U 23101C   26116.49841513  .00007707  00000+0  27376-3 0  9993
2 57401  97.2589 167.5847 0001944   4.9536 355.1723 15.29292071153746
