[{"OBJECT_NAME":"METOP-C","OBJECT_ID":"2018-087A","EPOCH":"2026-04-26T11:22:20.513856","MEAN_MOTION":14.215118,"ECCENTRICITY":8.3e-5,"INCLINATION":98.668,"RA_OF_ASC_NODE":177.0136,"ARG_OF_PERICENTER":40.3542,"MEAN_ANOMALY":319.7697,"EPHEMERIS_TYPE":0,"CLASSIFICATION_TYPE":"U","NORAD_CAT_ID":43689,"ELEMENT_SET_NO":999,"REV_AT_EPOCH":38748,"BSTAR":6.8879e-5,"MEAN_MOTION_DOT":1.07e-6,"MEAN_MOTION_DDOT":0},{"OBJECT_NAME":"GEO-KOMPSAT-2A","OBJECT_ID":"2018-100A","EPOCH":"2026-04-26T10:01:38.435808","MEAN_MOTION":1.00271204,"ECCENTRICITY":0.0001977,"INCLINATION":0.057,"RA_OF_ASC_NODE":67.3279,"ARG_OF_PERICENTER":357.6697,"MEAN_ANOMALY":68.0988,"EPHEMERIS_TYPE":0,"CLASSIFICATION_TYPE":"U","NORAD_CAT_ID":43823,"ELEMENT_SET_NO":999,"REV_AT_EPOCH":2711,"BSTAR":0,"MEAN_MOTION_DOT":-3.56e-6,"MEAN_MOTION_DDOT":0},{"OBJECT_NAME":"METEOR-M2 2","OBJECT_ID":"2019-038A","EPOCH":"2026-04-26T11:21:05.243904","MEAN_MOTION":14.24351008,"ECCENTRICITY":0.0001743,"INCLINATION":98.9133,"RA_OF_ASC_NODE":103.0021,"ARG_OF_PERICENTER":126.7987,"MEAN_ANOMALY":233.3351,"EPHEMERIS_TYPE":0,"CLASSIFICATION_TYPE":"U","NORAD_CAT_ID":44387,"ELEMENT_SET_NO":999,"REV_AT_EPOCH":35393,"BSTAR":5.6388e-5,"MEAN_MOTION_DOT":8.4e-7,"MEAN_MOTION_DDOT":0},{"OBJECT_NAME":"ARKTIKA-M 1","OBJECT_ID":"2021-016A","EPOCH":"2026-04-23T03:56:17.933280","MEAN_MOTION":2.00609676,"ECCENTRICITY":0.72664948,"INCLINATION":63.2246,"RA_OF_ASC_NODE":65.5569,"ARG_OF_PERICENTER":269.6808,"MEAN_ANOMALY":14.9538,"EPHEMERIS_TYPE":0,"CLASSIFICATION_TYPE":"U","NORAD_CAT_ID":47719,"ELEMENT_SET_NO":999,"REV_AT_EPOCH":3768,"BSTAR":0,"MEAN_MOTION_DOT":-1.01e-6,"MEAN_MOTION_DDOT":0},{"OBJECT_NAME":"FENGYUN 3E","OBJECT_ID":"2021-062A","EPOCH":"2026-04-26T13:11:03.100416","MEAN_MOTION":14.19900823,"ECCENTRICITY":7.74e-5,"INCLINATION":98.7512,"RA_OF_ASC_NODE":120.5326,"ARG_OF_PERICENTER":195.1286,"MEAN_ANOMALY":164.9867,"EPHEMERIS_TYPE":0,"CLASSIFICATION_TYPE":"U","NORAD_CAT_ID":49008,"ELEMENT_SET_NO":999,"REV_AT_EPOCH":24925,"BSTAR":0.00018329,"MEAN_MOTION_DOT":3.45e-6,"MEAN_MOTION_DDOT":0},{"OBJECT_NAME":"GOES 18","OBJECT_ID":"2022-021A","EPOCH":"2026-04-26T08:58:14.704320","MEAN_MOTION":1.00272543,"ECCENTRICITY":4.57e-5,"INCLINATION":0.0261,"RA_OF_ASC_NODE":86.4448,"ARG_OF_PERICENTER":2.5991,"MEAN_ANOMALY":122.8889,"EPHEMERIS_TYPE":0,"CLASSIFICATION_TYPE":"U","NORAD_CAT_ID":51850,"ELEMENT_SET_NO":999,"REV_AT_EPOCH":607,"BSTAR":0,"MEAN_MOTION_DOT":8.4e-7,"MEAN_MOTION_DDOT":0},{"OBJECT_NAME":"NOAA 21 (JPSS-2)","OBJECT_ID":"2022-150A","EPOCH":"2026-04-26T10:33:29.469888","MEAN_MOTION":14.19555691,"ECCENTRICITY":0.0001826,"INCLINATION":98.7033,"RA_OF_ASC_NODE":56.1056,"ARG_OF_PERICENTER":22.3565,"MEAN_ANOMALY":337.769,"EPHEMERIS_TYPE":0,"CLASSIFICATION_TYPE":"U","NORAD_CAT_ID":54234,"ELEMENT_SET_NO":999,"REV_AT_EPOCH":17920,"BSTAR":5.459e-5,"MEAN_MOTION_DOT":7.2e-7,"MEAN_MOTION_DDOT":0},{"OBJECT_NAME":"METEOSAT-12 (MTG-I1)","OBJECT_ID":"2022-170C","EPOCH":"2026-04-26T08:25:43.609152","MEAN_MOTION":1.00269432,"ECCENTRICITY":0.0001116,"INCLINATION":0.7238,"RA_OF_ASC_NODE":22.3142,"ARG_OF_PERICENTER":332.3843,"MEAN_ANOMALY":345.7586,"EPHEMERIS_TYPE":0,"CLASSIFICATION_TYPE":"U","NORAD_CAT_ID":54743,"ELEMENT_SET_NO":999,"REV_AT_EPOCH":1245,"BSTAR":0,"MEAN_MOTION_DOT":-2.0e-7,"MEAN_MOTION_DDOT":0},{"OBJECT_NAME":"TIANMU-1 03","OBJECT_ID":"2023-039A","EPOCH":"2026-04-26T11:33:24.903072","MEAN_MOTION":15.45786693,"ECCENTRICITY":0.0001641,"INCLINATION":97.5218,"RA_OF_ASC_NODE":288.4918,"ARG_OF_PERICENTER":282.0137,"MEAN_ANOMALY":78.0928,"EPHEMERIS_TYPE":0,"CLASSIFICATION_TYPE":"U","NORAD_CAT_ID":55973,"ELEMENT_SET_NO":999,"REV_AT_EPOCH":17284,"BSTAR":0.00037297,"MEAN_MOTION_DOT":0.00017987,"MEAN_MOTION_DDOT":0},{"OBJECT_NAME":"TIANMU-1 04","OBJECT_ID":"2023-039B","EPOCH":"2026-04-26T11:45:42.822144","MEAN_MOTION":15.46331724,"ECCENTRICITY":0.0002294,"INCLINATION":97.5153,"RA_OF_ASC_NODE":287.6535,"ARG_OF_PERICENTER":275.6537,"MEAN_ANOMALY":84.445,"EPHEMERIS_TYPE":0,"CLASSIFICATION_TYPE":"U","NORAD_CAT_ID":55974,"ELEMENT_SET_NO":999,"REV_AT_EPOCH":17285,"BSTAR":0.00038262,"MEAN_MOTION_DOT":0.00018805,"MEAN_MOTION_DDOT":0},{"OBJECT_NAME":"TIANMU-1 05","OBJECT_ID":"2023-039C","EPOCH":"2026-04-26T12:35:37.797792","MEAN_MOTION":15.45725348,"ECCENTRICITY":0.0001616,"INCLINATION":97.5198,"RA_OF_ASC_NODE":288.1704,"ARG_OF_PERICENTER":325.0449,"MEAN_ANOMALY":35.0693,"EPHEMERIS_TYPE":0,"CLASSIFICATION_TYPE":"U","NORAD_CAT_ID":55975,"ELEMENT_SET_NO":999,"REV_AT_EPOCH":17283,"BSTAR":0.00037397,"MEAN_MOTION_DOT":0.00017997,"MEAN_MOTION_DDOT":0},{"OBJECT_NAME":"TIANMU-1 06","OBJECT_ID":"2023-039D","EPOCH":"2026-04-26T11:46:31.093824","MEAN_MOTION":15.46258648,"ECCENTRICITY":0.0001791,"INCLINATION":97.5207,"RA_OF_ASC_NODE":288.7202,"ARG_OF_PERICENTER":311.7247,"MEAN_ANOMALY":48.3849,"EPHEMERIS_TYPE":0,"CLASSIFICATION_TYPE":"U","NORAD_CAT_ID":55976,"ELEMENT_SET_NO":999,"REV_AT_EPOCH":17285,"BSTAR":0.00037434,"MEAN_MOTION_DOT":0.00018349,"MEAN_MOTION_DDOT":0},{"OBJECT_NAME":"FENGYUN 3G","OBJECT_ID":"2023-055A","EPOCH":"2026-04-26T12:16:41.929824","MEAN_MOTION":15.52381049,"ECCENTRICITY":0.0005978,"INCLINATION":49.9927,"RA_OF_ASC_NODE":252.5276,"ARG_OF_PERICENTER":322.7604,"MEAN_ANOMALY":37.2948,"EPHEMERIS_TYPE":0,"CLASSIFICATION_TYPE":"U","NORAD_CAT_ID":56232,"ELEMENT_SET_NO":999,"REV_AT_EPOCH":17197,"BSTAR":0.00050977,"MEAN_MOTION_DOT":0.00031398,"MEAN_MOTION_DDOT":0},{"OBJECT_NAME":"METEOR-M2 3","OBJECT_ID":"2023-091A","EPOCH":"2026-04-26T12:37:15.691584","MEAN_MOTION":14.24042256,"ECCENTRICITY":0.0003262,"INCLINATION":98.6123,"RA_OF_ASC_NODE":172.5504,"ARG_OF_PERICENTER":336.724,"MEAN_ANOMALY":23.3791,"EPHEMERIS_TYPE":0,"CLASSIFICATION_TYPE":"U","NORAD_CAT_ID":57166,"ELEMENT_SET_NO":999,"REV_AT_EPOCH":14716,"BSTAR":2.1202e-5,"MEAN_MOTION_DOT":5.0e-8,"MEAN_MOTION_DDOT":0},{"OBJECT_NAME":"TIANMU-1 07","OBJECT_ID":"2023-101A","EPOCH":"2026-04-26T11:33:44.578080","MEAN_MOTION":15.2925466,"ECCENTRICITY":0.0001437,"INCLINATION":97.2641,"RA_OF_ASC_NODE":168.348,"ARG_OF_PERICENTER":13.1906,"MEAN_ANOMALY":346.9372,"EPHEMERIS_TYPE":0,"CLASSIFICATION_TYPE":"U","NORAD_CAT_ID":57399,"ELEMENT_SET_NO":999,"REV_AT_EPOCH":15374,"BSTAR":0.0002692,"MEAN_MOTION_DOT":7.568e-5,"MEAN_MOTION_DDOT":0},{"OBJECT_NAME":"TIANMU-1 08","OBJECT_ID":"2023-101B","EPOCH":"2026-04-26T12:21:10.014336","MEAN_MOTION":15.29285637,"ECCENTRICITY":0.0002292,"INCLINATION":97.263,"RA_OF_ASC_NODE":168.1565,"ARG_OF_PERICENTER":318.1016,"MEAN_ANOMALY":42.0049,"EPHEMERIS_TYPE":0,"CLASSIFICATION_TYPE":"U","NORAD_CAT_ID":57400,"ELEMENT_SET_NO":999,"REV_AT_EPOCH":15374,"BSTAR":0.0003198,"MEAN_MOTION_DOT":9.015e-5,"MEAN_MOTION_DDOT":0},{"OBJECT_NAME":"TIANMU-1 09","OBJECT_ID":"2023-101C","EPOCH":"2026-04-26T11:57:43.067232","MEAN_MOTION":15.29292071,"ECCENTRICITY":0.0001944,"INCLINATION":97.2589,"RA_OF_ASC_NODE":167.5847,"ARG_OF_PERICENTER":4.9536,"MEAN_ANOMALY":355.1723,"EPHEMERIS_TYPE":0,"CLASSIFICATION_TYPE":"U","NORAD_CAT_ID":57401,"ELEMENT_SET_NO":999,"REV_AT_EPOCH":15374,"BSTAR":0.00027376,"MEAN_MOTION_DOT":7.707e-5,"MEAN_MOTION_DDOT":0}]
